POLYGON((34.1395378112793 -73.36800384521484,38.81100845336914 -73.36800384521484,38.81100845336914 -72.1046371459961,34.1395378112793 -72.1046371459961,34.1395378112793 -73.36800384521484))
POLYGON((76.25404357910156 -74.5639877319336,78.25404357910156 -74.5639877319336,78.25404357910156 -70.33170318603516,76.25404357910156 -70.33170318603516,76.25404357910156 -74.5639877319336))
POLYGON((-15.696621894836426 -30.556381225585938,-13.696621894836426 -30.556381225585938,-13.696621894836426 -29.712732315063477,-15.696621894836426 -29.712732315063477,-15.696621894836426 -30.556381225585938))
POLYGON((51.656185150146484 -84.43700408935547,53.656185150146484 -84.43700408935547,53.656185150146484 -82.43700408935547,51.656185150146484 -82.43700408935547,51.656185150146484 -84.43700408935547))
POLYGON((-88.67882537841797 94.16960144042969,-78.8375244140625 94.16960144042969,-78.8375244140625 101.30098724365234,-88.67882537841797 101.30098724365234,-88.67882537841797 94.16960144042969))
POLYGON((-40.545597076416016 -15.880126953125,-38.8928108215332 -15.880126953125,-38.8928108215332 -15.629575729370117,-40.545597076416016 -15.629575729370117,-40.545597076416016 -15.880126953125))
POLYGON((-70.29975891113281 54.90537643432617,-62.11298370361328 54.90537643432617,-62.11298370361328 61.84263610839844,-70.29975891113281 61.84263610839844,-70.29975891113281 54.90537643432617))
POLYGON((89.37542724609375 -58.938934326171875,95.04305267333984 -58.938934326171875,95.04305267333984 -57.259254455566406,89.37542724609375 -57.259254455566406,89.37542724609375 -58.938934326171875))
POLYGON((32.10017013549805 12.29079532623291,39.19111633300781 12.29079532623291,39.19111633300781 16.546897888183594,32.10017013549805 16.546897888183594,32.10017013549805 12.29079532623291))
POLYGON((31.664209365844727 -26.623626708984375,34.57442855834961 -26.623626708984375,34.57442855834961 -22.542333602905273,31.664209365844727 -22.542333602905273,31.664209365844727 -26.623626708984375))
POLYGON((-82.15414428710938 -79.21260070800781,-81.63213348388672 -79.21260070800781,-81.63213348388672 -75.9020767211914,-82.15414428710938 -75.9020767211914,-82.15414428710938 -79.21260070800781))
POLYGON((43.80902099609375 51.090797424316406,51.945960998535156 51.090797424316406,51.945960998535156 56.664039611816406,43.80902099609375 56.664039611816406,43.80902099609375 51.090797424316406))
POLYGON((26.78644371032715 -70.05274200439453,34.511173248291016 -70.05274200439453,34.511173248291016 -66.97329711914062,26.78644371032715 -66.97329711914062,26.78644371032715 -70.05274200439453))
POLYGON((-51.287654876708984 -7.135586738586426,-49.374794006347656 -7.135586738586426,-49.374794006347656 1.4009332656860352,-51.287654876708984 1.4009332656860352,-51.287654876708984 -7.135586738586426))
POLYGON((-66.72309112548828 25.031740188598633,-58.06353759765625 25.031740188598633,-58.06353759765625 28.25010108947754,-66.72309112548828 28.25010108947754,-66.72309112548828 25.031740188598633))
POLYGON((-9.236205101013184 -9.173422813415527,-0.29251575469970703 -9.173422813415527,-0.29251575469970703 -5.78269624710083,-9.236205101013184 -5.78269624710083,-9.236205101013184 -9.173422813415527))
POLYGON((-32.23126983642578 99.83182525634766,-26.289270401000977 99.83182525634766,-26.289270401000977 107.57511901855469,-32.23126983642578 107.57511901855469,-32.23126983642578 99.83182525634766))
POLYGON((17.78496742248535 61.59956359863281,19.133739471435547 61.59956359863281,19.133739471435547 61.911094665527344,17.78496742248535 61.911094665527344,17.78496742248535 61.59956359863281))
POLYGON((95.20669555664062 19.02386474609375,96.5692138671875 19.02386474609375,96.5692138671875 20.83571434020996,95.20669555664062 20.83571434020996,95.20669555664062 19.02386474609375))
POLYGON((13.923099517822266 -80.67431640625,17.519351959228516 -80.67431640625,17.519351959228516 -73.88972473144531,13.923099517822266 -73.88972473144531,13.923099517822266 -80.67431640625))
POLYGON((-11.52026081085205 15.204286575317383,-4.1596760749816895 15.204286575317383,-4.1596760749816895 18.77348518371582,-11.52026081085205 18.77348518371582,-11.52026081085205 15.204286575317383))
POLYGON((-82.70532989501953 2.1173946857452393,-82.23858642578125 2.1173946857452393,-82.23858642578125 8.106025695800781,-82.70532989501953 8.106025695800781,-82.70532989501953 2.1173946857452393))
POLYGON((-84.13973999023438 -35.344276428222656,-78.3416519165039 -35.344276428222656,-78.3416519165039 -33.36769485473633,-84.13973999023438 -33.36769485473633,-84.13973999023438 -35.344276428222656))
POLYGON((48.14468765258789 -94.81684875488281,51.35125732421875 -94.81684875488281,51.35125732421875 -91.59278869628906,48.14468765258789 -91.59278869628906,48.14468765258789 -94.81684875488281))
POLYGON((-68.02039337158203 50.971702575683594,-58.4033317565918 50.971702575683594,-58.4033317565918 60.767433166503906,-68.02039337158203 60.767433166503906,-68.02039337158203 50.971702575683594))
POLYGON((63.877628326416016 91.60169982910156,68.26152038574219 91.60169982910156,68.26152038574219 96.10516357421875,63.877628326416016 96.10516357421875,63.877628326416016 91.60169982910156))
POLYGON((83.42317199707031 72.97183227539062,85.27342224121094 72.97183227539062,85.27342224121094 78.87557220458984,83.42317199707031 78.87557220458984,83.42317199707031 72.97183227539062))
POLYGON((-94.14678192138672 23.01072120666504,-89.0492935180664 23.01072120666504,-89.0492935180664 24.271812438964844,-94.14678192138672 24.271812438964844,-94.14678192138672 23.01072120666504))
POLYGON((57.37908172607422 36.9272575378418,61.1693000793457 36.9272575378418,61.1693000793457 38.03971862792969,57.37908172607422 38.03971862792969,57.37908172607422 36.9272575378418))
POLYGON((94.63721466064453 -49.470855712890625,98.92694854736328 -49.470855712890625,98.92694854736328 -41.259674072265625,94.63721466064453 -41.259674072265625,94.63721466064453 -49.470855712890625))
POLYGON((-49.778968811035156 -29.903623580932617,-43.9423713684082 -29.903623580932617,-43.9423713684082 -28.454233169555664,-49.778968811035156 -28.454233169555664,-49.778968811035156 -29.903623580932617))
POLYGON((-18.32281494140625 86.86422729492188,-16.100431442260742 86.86422729492188,-16.100431442260742 94.5152816772461,-18.32281494140625 94.5152816772461,-18.32281494140625 86.86422729492188))
POLYGON((43.36732864379883 -71.82962036132812,50.40886306762695 -71.82962036132812,50.40886306762695 -65.98880767822266,43.36732864379883 -65.98880767822266,43.36732864379883 -71.82962036132812))
POLYGON((73.87641143798828 -64.1762924194336,83.13162994384766 -64.1762924194336,83.13162994384766 -54.817222595214844,73.87641143798828 -54.817222595214844,73.87641143798828 -64.1762924194336))
POLYGON((88.49136352539062 -96.1310043334961,89.3280029296875 -96.1310043334961,89.3280029296875 -86.92564392089844,88.49136352539062 -86.92564392089844,88.49136352539062 -96.1310043334961))
POLYGON((16.09695816040039 98.79127502441406,21.8161678314209 98.79127502441406,21.8161678314209 104.69517517089844,16.09695816040039 104.69517517089844,16.09695816040039 98.79127502441406))
POLYGON((-31.414047241210938 -98.66010284423828,-29.873991012573242 -98.66010284423828,-29.873991012573242 -89.30170440673828,-31.414047241210938 -89.30170440673828,-31.414047241210938 -98.66010284423828))
POLYGON((-34.077388763427734 -16.446073532104492,-24.68393325805664 -16.446073532104492,-24.68393325805664 -7.657342910766602,-34.077388763427734 -7.657342910766602,-34.077388763427734 -16.446073532104492))
POLYGON((72.63414764404297 5.291282653808594,74.15876770019531 5.291282653808594,74.15876770019531 11.770858764648438,72.63414764404297 11.770858764648438,72.63414764404297 5.291282653808594))
POLYGON((-24.386676788330078 9.722838401794434,-22.093189239501953 9.722838401794434,-22.093189239501953 17.351879119873047,-24.386676788330078 17.351879119873047,-24.386676788330078 9.722838401794434))
POLYGON((-67.61691284179688 39.592262268066406,-65.68400573730469 39.592262268066406,-65.68400573730469 43.36269760131836,-67.61691284179688 43.36269760131836,-67.61691284179688 39.592262268066406))
POLYGON((53.53478240966797 32.065345764160156,62.854881286621094 32.065345764160156,62.854881286621094 40.46702194213867,53.53478240966797 40.46702194213867,53.53478240966797 32.065345764160156))
POLYGON((-26.777708053588867 -58.825565338134766,-21.872005462646484 -58.825565338134766,-21.872005462646484 -56.45787048339844,-26.777708053588867 -56.45787048339844,-26.777708053588867 -58.825565338134766))
POLYGON((-58.56584167480469 -87.14554595947266,-48.59625244140625 -87.14554595947266,-48.59625244140625 -86.50225067138672,-58.56584167480469 -86.50225067138672,-58.56584167480469 -87.14554595947266))
POLYGON((49.376155853271484 -53.98570251464844,58.88520050048828 -53.98570251464844,58.88520050048828 -53.465946197509766,49.376155853271484 -53.465946197509766,49.376155853271484 -53.98570251464844))
POLYGON((-52.99345397949219 26.745574951171875,-49.36863708496094 26.745574951171875,-49.36863708496094 35.10052490234375,-52.99345397949219 35.10052490234375,-52.99345397949219 26.745574951171875))
POLYGON((73.7584228515625 -80.77577209472656,74.62773132324219 -80.77577209472656,74.62773132324219 -78.11044311523438,73.7584228515625 -78.11044311523438,73.7584228515625 -80.77577209472656))
POLYGON((23.8939208984375 43.274288177490234,28.97296142578125 43.274288177490234,28.97296142578125 46.43876647949219,23.8939208984375 46.43876647949219,23.8939208984375 43.274288177490234))
POLYGON((19.381608963012695 -73.4937973022461,25.037311553955078 -73.4937973022461,25.037311553955078 -66.68939971923828,19.381608963012695 -66.68939971923828,19.381608963012695 -73.4937973022461))
POLYGON((-28.70050811767578 -77.10294342041016,-22.399703979492188 -77.10294342041016,-22.399703979492188 -71.45228576660156,-28.70050811767578 -71.45228576660156,-28.70050811767578 -77.10294342041016))
POLYGON((90.04080200195312 -97.52061462402344,97.72381591796875 -97.52061462402344,97.72381591796875 -97.3165512084961,90.04080200195312 -97.3165512084961,90.04080200195312 -97.52061462402344))
POLYGON((-61.90583419799805 -67.80964660644531,-57.30125045776367 -67.80964660644531,-57.30125045776367 -64.77056884765625,-61.90583419799805 -64.77056884765625,-61.90583419799805 -67.80964660644531))
POLYGON((17.945453643798828 92.06044006347656,24.63357925415039 92.06044006347656,24.63357925415039 98.64917755126953,17.945453643798828 98.64917755126953,17.945453643798828 92.06044006347656))
POLYGON((-77.38482666015625 88.8775634765625,-70.48951721191406 88.8775634765625,-70.48951721191406 88.99259185791016,-77.38482666015625 88.99259185791016,-77.38482666015625 88.8775634765625))
POLYGON((12.953293800354004 25.360132217407227,19.555130004882812 25.360132217407227,19.555130004882812 34.521018981933594,12.953293800354004 34.521018981933594,12.953293800354004 25.360132217407227))
POLYGON((32.51410675048828 98.2956771850586,35.92662048339844 98.2956771850586,35.92662048339844 100.35941314697266,32.51410675048828 100.35941314697266,32.51410675048828 98.2956771850586))
POLYGON((-25.537553787231445 4.19913387298584,-17.872024536132812 4.19913387298584,-17.872024536132812 8.689716339111328,-25.537553787231445 8.689716339111328,-25.537553787231445 4.19913387298584))
POLYGON((63.103878021240234 93.0902328491211,67.58946228027344 93.0902328491211,67.58946228027344 101.09602355957031,63.103878021240234 101.09602355957031,63.103878021240234 93.0902328491211))
POLYGON((58.27171325683594 41.2691764831543,60.17027282714844 41.2691764831543,60.17027282714844 42.77817153930664,58.27171325683594 42.77817153930664,58.27171325683594 41.2691764831543))
POLYGON((-71.41773223876953 -17.267274856567383,-66.45277404785156 -17.267274856567383,-66.45277404785156 -9.028505325317383,-71.41773223876953 -9.028505325317383,-71.41773223876953 -17.267274856567383))
POLYGON((-79.14015197753906 40.29161071777344,-70.35916900634766 40.29161071777344,-70.35916900634766 48.231239318847656,-79.14015197753906 48.231239318847656,-79.14015197753906 40.29161071777344))
POLYGON((-3.820307493209839 46.4441032409668,3.6458184719085693 46.4441032409668,3.6458184719085693 50.58940124511719,-3.820307493209839 50.58940124511719,-3.820307493209839 46.4441032409668))
POLYGON((-70.979248046875 -94.69322204589844,-62.00298309326172 -94.69322204589844,-62.00298309326172 -92.31236267089844,-70.979248046875 -92.31236267089844,-70.979248046875 -94.69322204589844))
POLYGON((-14.031939506530762 25.128067016601562,-7.7350640296936035 25.128067016601562,-7.7350640296936035 30.413982391357422,-14.031939506530762 30.413982391357422,-14.031939506530762 25.128067016601562))
