POLYGON((34.1395378112793 -73.36800384521484,38.81100845336914 -73.36800384521484,38.81100845336914 -72.1046371459961,34.1395378112793 -72.1046371459961,34.1395378112793 -73.36800384521484))
POLYGON((69.83877563476562 -74.5639877319336,76.25404357910156 -74.5639877319336,76.25404357910156 -70.33170318603516,69.83877563476562 -70.33170318603516,69.83877563476562 -74.5639877319336))
POLYGON((-23.975080490112305 -30.556381225585938,-15.696622848510742 -30.556381225585938,-15.696622848510742 -29.712732315063477,-23.975080490112305 -29.712732315063477,-23.975080490112305 -30.556381225585938))
POLYGON((42.460105895996094 -84.71150207519531,51.656185150146484 -84.71150207519531,51.656185150146484 -84.43700408935547,42.460105895996094 -84.43700408935547,42.460105895996094 -84.71150207519531))
POLYGON((-41.09938430786133 42.66031265258789,-33.6568489074707 42.66031265258789,-33.6568489074707 43.03570556640625,-41.09938430786133 43.03570556640625,-41.09938430786133 42.66031265258789))
POLYGON((1.4948599338531494 11.71396541595459,7.810354232788086 11.71396541595459,7.810354232788086 13.424348831176758,1.4948599338531494 13.424348831176758,1.4948599338531494 11.71396541595459))
POLYGON((-26.86081886291504 51.902015686035156,-24.07493782043457 51.902015686035156,-24.07493782043457 58.433204650878906,-26.86081886291504 58.433204650878906,-26.86081886291504 51.902015686035156))
POLYGON((44.38883590698242 23.131933212280273,51.487571716308594 23.131933212280273,51.487571716308594 31.680326461791992,44.38883590698242 31.680326461791992,44.38883590698242 23.131933212280273))
POLYGON((-49.6268196105957 75.45933532714844,-41.30088424682617 75.45933532714844,-41.30088424682617 76.72450256347656,-49.6268196105957 76.72450256347656,-49.6268196105957 75.45933532714844))
POLYGON((-60.80064010620117 50.093475341796875,-53.69920349121094 50.093475341796875,-53.69920349121094 54.72711944580078,-60.80064010620117 54.72711944580078,-60.80064010620117 50.093475341796875))
POLYGON((-77.77709197998047 -44.1409797668457,-77.25479888916016 -44.1409797668457,-77.25479888916016 -35.867305755615234,-77.77709197998047 -35.867305755615234,-77.77709197998047 -44.1409797668457))
POLYGON((71.1670150756836 15.62662410736084,74.4281997680664 15.62662410736084,74.4281997680664 18.783912658691406,71.1670150756836 18.783912658691406,71.1670150756836 15.62662410736084))
POLYGON((-80.85414123535156 56.2680549621582,-71.19231414794922 56.2680549621582,-71.19231414794922 63.253726959228516,-80.85414123535156 63.253726959228516,-80.85414123535156 56.2680549621582))
POLYGON((33.01484680175781 -73.21086883544922,38.30574417114258 -73.21086883544922,38.30574417114258 -70.74866485595703,33.01484680175781 -70.74866485595703,33.01484680175781 -73.21086883544922))
POLYGON((77.15106964111328 94.56632995605469,78.59326934814453 94.56632995605469,78.59326934814453 98.08602142333984,77.15106964111328 98.08602142333984,77.15106964111328 94.56632995605469))
POLYGON((7.6507768630981445 -98.01959228515625,7.897525787353516 -98.01959228515625,7.897525787353516 -97.06610870361328,7.6507768630981445 -97.06610870361328,7.6507768630981445 -98.01959228515625))
POLYGON((67.84569549560547 -15.58657169342041,71.23845672607422 -15.58657169342041,71.23845672607422 -8.262472152709961,67.84569549560547 -8.262472152709961,67.84569549560547 -15.58657169342041))
POLYGON((47.42354965209961 -51.51742172241211,47.710689544677734 -51.51742172241211,47.710689544677734 -43.65918731689453,47.42354965209961 -43.65918731689453,47.42354965209961 -51.51742172241211))
POLYGON((79.14863586425781 19.782989501953125,87.68555450439453 19.782989501953125,87.68555450439453 23.53921127319336,79.14863586425781 23.53921127319336,79.14863586425781 19.782989501953125))
POLYGON((-76.71216583251953 5.815914154052734,-73.16345977783203 5.815914154052734,-73.16345977783203 14.889567375183105,-76.71216583251953 14.889567375183105,-76.71216583251953 5.815914154052734))
POLYGON((-57.349937438964844 20.688417434692383,-54.70123291015625 20.688417434692383,-54.70123291015625 23.371416091918945,-57.349937438964844 23.371416091918945,-57.349937438964844 20.688417434692383))
POLYGON((86.55281066894531 -90.1759262084961,94.41680145263672 -90.1759262084961,94.41680145263672 -83.02130889892578,86.55281066894531 -83.02130889892578,86.55281066894531 -90.1759262084961))
POLYGON((-52.128963470458984 -5.116516590118408,-48.66508102416992 -5.116516590118408,-48.66508102416992 -1.9457645416259766,-52.128963470458984 -1.9457645416259766,-52.128963470458984 -5.116516590118408))
POLYGON((-24.4753360748291 70.92546844482422,-21.79197883605957 70.92546844482422,-21.79197883605957 80.35294342041016,-24.4753360748291 80.35294342041016,-24.4753360748291 70.92546844482422))
POLYGON((9.624464988708496 -89.87106323242188,13.312755584716797 -89.87106323242188,13.312755584716797 -86.7348861694336,9.624464988708496 -86.7348861694336,9.624464988708496 -89.87106323242188))
POLYGON((-77.28254699707031 8.202482223510742,-72.30103302001953 8.202482223510742,-72.30103302001953 13.225983619689941,-77.28254699707031 13.225983619689941,-77.28254699707031 8.202482223510742))
POLYGON((-64.55744934082031 51.35191345214844,-59.567684173583984 51.35191345214844,-59.567684173583984 54.9844856262207,-64.55744934082031 54.9844856262207,-64.55744934082031 51.35191345214844))
POLYGON((54.79690170288086 -26.649194717407227,61.28745651245117 -26.649194717407227,61.28745651245117 -24.306556701660156,54.79690170288086 -24.306556701660156,54.79690170288086 -26.649194717407227))
POLYGON((1.3758094310760498 19.308618545532227,4.696567535400391 19.308618545532227,4.696567535400391 23.586994171142578,1.3758094310760498 23.586994171142578,1.3758094310760498 19.308618545532227))
POLYGON((89.69294738769531 -27.98191261291504,94.0521011352539 -27.98191261291504,94.0521011352539 -21.29642677307129,89.69294738769531 -21.29642677307129,89.69294738769531 -27.98191261291504))
POLYGON((-76.45445251464844 16.67194938659668,-72.09976196289062 16.67194938659668,-72.09976196289062 17.578298568725586,-76.45445251464844 17.578298568725586,-76.45445251464844 16.67194938659668))
POLYGON((73.46708679199219 16.63145637512207,78.27952575683594 16.63145637512207,78.27952575683594 20.866342544555664,73.46708679199219 20.866342544555664,73.46708679199219 16.63145637512207))
POLYGON((-39.834896087646484 -56.268157958984375,-35.82637023925781 -56.268157958984375,-35.82637023925781 -49.4752311706543,-39.834896087646484 -49.4752311706543,-39.834896087646484 -56.268157958984375))
POLYGON((87.06848907470703 -34.92719650268555,94.48413848876953 -34.92719650268555,94.48413848876953 -30.090194702148438,87.06848907470703 -30.090194702148438,87.06848907470703 -34.92719650268555))
POLYGON((25.808818817138672 3.0001654624938965,29.79391098022461 3.0001654624938965,29.79391098022461 12.64321517944336,25.808818817138672 12.64321517944336,25.808818817138672 3.0001654624938965))
POLYGON((89.53196716308594 -55.43441390991211,92.99192810058594 -55.43441390991211,92.99192810058594 -50.54359436035156,89.53196716308594 -50.54359436035156,89.53196716308594 -55.43441390991211))
POLYGON((-17.14756965637207 -56.01742172241211,-10.084647178649902 -56.01742172241211,-10.084647178649902 -47.81404113769531,-17.14756965637207 -47.81404113769531,-17.14756965637207 -56.01742172241211))
POLYGON((1.8651015758514404 -51.83906936645508,8.488059997558594 -51.83906936645508,8.488059997558594 -42.15334701538086,1.8651015758514404 -42.15334701538086,1.8651015758514404 -51.83906936645508))
POLYGON((18.13134765625 -11.073426246643066,26.346586227416992 -11.073426246643066,26.346586227416992 -10.144112586975098,18.13134765625 -10.144112586975098,18.13134765625 -11.073426246643066))
POLYGON((-5.9658284187316895 -22.537303924560547,0.5545206069946289 -22.537303924560547,0.5545206069946289 -16.533601760864258,-5.9658284187316895 -16.533601760864258,-5.9658284187316895 -22.537303924560547))
POLYGON((-37.194610595703125 -52.79280471801758,-36.64128112792969 -52.79280471801758,-36.64128112792969 -51.25899124145508,-37.194610595703125 -51.25899124145508,-37.194610595703125 -52.79280471801758))
POLYGON((-25.162948608398438 -95.17315673828125,-17.479787826538086 -95.17315673828125,-17.479787826538086 -89.13395690917969,-25.162948608398438 -89.13395690917969,-25.162948608398438 -95.17315673828125))
POLYGON((84.59711456298828 -21.095849990844727,92.61852264404297 -21.095849990844727,92.61852264404297 -20.870765686035156,84.59711456298828 -20.870765686035156,84.59711456298828 -21.095849990844727))
POLYGON((23.144554138183594 70.22887420654297,28.746572494506836 70.22887420654297,28.746572494506836 75.44493865966797,23.144554138183594 75.44493865966797,23.144554138183594 70.22887420654297))
POLYGON((83.97374725341797 -30.522890090942383,91.80709838867188 -30.522890090942383,91.80709838867188 -27.35931396484375,83.97374725341797 -27.35931396484375,83.97374725341797 -30.522890090942383))
POLYGON((26.166013717651367 -41.07870864868164,29.969018936157227 -41.07870864868164,29.969018936157227 -36.67036437988281,26.166013717651367 -36.67036437988281,26.166013717651367 -41.07870864868164))
POLYGON((96.63550567626953 2.208286762237549,101.4703369140625 2.208286762237549,101.4703369140625 9.352367401123047,96.63550567626953 9.352367401123047,96.63550567626953 2.208286762237549))
POLYGON((-23.69829750061035 6.7945756912231445,-22.6112060546875 6.7945756912231445,-22.6112060546875 8.267036437988281,-23.69829750061035 8.267036437988281,-23.69829750061035 6.7945756912231445))
POLYGON((8.45757007598877 43.50675582885742,15.813970565795898 43.50675582885742,15.813970565795898 51.93256378173828,8.45757007598877 51.93256378173828,8.45757007598877 43.50675582885742))
POLYGON((90.845458984375 -73.52994537353516,96.34928894042969 -73.52994537353516,96.34928894042969 -69.91419219970703,90.845458984375 -69.91419219970703,90.845458984375 -73.52994537353516))
POLYGON((-58.62230682373047 15.158975601196289,-58.028785705566406 15.158975601196289,-58.028785705566406 16.491069793701172,-58.62230682373047 16.491069793701172,-58.62230682373047 15.158975601196289))
POLYGON((-79.02489471435547 -94.83331298828125,-72.12239837646484 -94.83331298828125,-72.12239837646484 -84.83658599853516,-79.02489471435547 -84.83658599853516,-79.02489471435547 -94.83331298828125))
POLYGON((-56.978050231933594 29.622425079345703,-49.510276794433594 29.622425079345703,-49.510276794433594 38.607460021972656,-56.978050231933594 38.607460021972656,-56.978050231933594 29.622425079345703))
POLYGON((47.44445037841797 47.57209014892578,49.26374816894531 47.57209014892578,49.26374816894531 55.27492141723633,47.44445037841797 55.27492141723633,47.44445037841797 47.57209014892578))
POLYGON((10.328014373779297 -26.664216995239258,16.109128952026367 -26.664216995239258,16.109128952026367 -21.301021575927734,10.328014373779297 -21.301021575927734,10.328014373779297 -26.664216995239258))
POLYGON((83.3724365234375 -44.103233337402344,91.95892333984375 -44.103233337402344,91.95892333984375 -34.85594940185547,83.3724365234375 -34.85594940185547,83.3724365234375 -44.103233337402344))
POLYGON((18.95597267150879 45.02659606933594,26.13619613647461 45.02659606933594,26.13619613647461 52.399967193603516,18.95597267150879 52.399967193603516,18.95597267150879 45.02659606933594))
POLYGON((84.61827087402344 31.019899368286133,87.84700012207031 31.019899368286133,87.84700012207031 35.441856384277344,84.61827087402344 35.441856384277344,84.61827087402344 31.019899368286133))
POLYGON((-25.796642303466797 -18.09688377380371,-25.30307388305664 -18.09688377380371,-25.30307388305664 -10.580572128295898,-25.796642303466797 -10.580572128295898,-25.796642303466797 -18.09688377380371))
POLYGON((-96.41907501220703 67.96826171875,-94.7130355834961 67.96826171875,-94.7130355834961 72.0318603515625,-96.41907501220703 72.0318603515625,-96.41907501220703 67.96826171875))
POLYGON((50.177608489990234 -37.10977554321289,56.586761474609375 -37.10977554321289,56.586761474609375 -33.66233444213867,50.177608489990234 -33.66233444213867,50.177608489990234 -37.10977554321289))
POLYGON((-71.69139862060547 -3.003319501876831,-70.54655456542969 -3.003319501876831,-70.54655456542969 4.031484603881836,-71.69139862060547 4.031484603881836,-71.69139862060547 -3.003319501876831))
POLYGON((89.0866470336914 99.4059066772461,97.74868774414062 99.4059066772461,97.74868774414062 108.41356658935547,89.0866470336914 108.41356658935547,89.0866470336914 99.4059066772461))
POLYGON((-16.713233947753906 -39.470680236816406,-10.720829010009766 -39.470680236816406,-10.720829010009766 -34.43834686279297,-16.713233947753906 -34.43834686279297,-16.713233947753906 -39.470680236816406))
POLYGON((68.7601547241211 54.06576919555664,73.48969268798828 54.06576919555664,73.48969268798828 56.17530059814453,68.7601547241211 56.17530059814453,68.7601547241211 54.06576919555664))
POLYGON((-39.33191680908203 47.43553161621094,-35.32876968383789 47.43553161621094,-35.32876968383789 48.77903366088867,-39.33191680908203 48.77903366088867,-39.33191680908203 47.43553161621094))
POLYGON((-87.41265869140625 9.972383499145508,-87.02021026611328 9.972383499145508,-87.02021026611328 15.512184143066406,-87.41265869140625 15.512184143066406,-87.41265869140625 9.972383499145508))
POLYGON((68.57293701171875 -80.30182647705078,72.41280364990234 -80.30182647705078,72.41280364990234 -73.52454376220703,68.57293701171875 -73.52454376220703,68.57293701171875 -80.30182647705078))
POLYGON((-87.6117172241211 89.73455810546875,-85.18828582763672 89.73455810546875,-85.18828582763672 90.17897033691406,-87.6117172241211 90.17897033691406,-87.6117172241211 89.73455810546875))
POLYGON((62.10679244995117 18.101444244384766,70.20557403564453 18.101444244384766,70.20557403564453 21.97502899169922,62.10679244995117 21.97502899169922,62.10679244995117 18.101444244384766))
POLYGON((-18.272775650024414 -85.5014877319336,-12.179912567138672 -85.5014877319336,-12.179912567138672 -83.28936767578125,-18.272775650024414 -83.28936767578125,-18.272775650024414 -85.5014877319336))
POLYGON((24.872968673706055 -59.99063491821289,32.868568420410156 -59.99063491821289,32.868568420410156 -59.36349868774414,24.872968673706055 -59.36349868774414,24.872968673706055 -59.99063491821289))
POLYGON((39.632537841796875 -34.934425354003906,49.46614074707031 -34.934425354003906,49.46614074707031 -29.870712280273438,39.632537841796875 -29.870712280273438,39.632537841796875 -34.934425354003906))
POLYGON((-41.339664459228516 97.49066925048828,-36.69073486328125 97.49066925048828,-36.69073486328125 100.88419342041016,-41.339664459228516 100.88419342041016,-41.339664459228516 97.49066925048828))
POLYGON((-34.82398986816406 51.50071716308594,-30.81009292602539 51.50071716308594,-30.81009292602539 61.038185119628906,-34.82398986816406 61.038185119628906,-34.82398986816406 51.50071716308594))
POLYGON((5.786657333374023 52.98486328125,10.527139663696289 52.98486328125,10.527139663696289 58.76902389526367,5.786657333374023 58.76902389526367,5.786657333374023 52.98486328125))
POLYGON((-20.214313507080078 18.35190200805664,-16.239553451538086 18.35190200805664,-16.239553451538086 24.855165481567383,-20.214313507080078 24.855165481567383,-20.214313507080078 18.35190200805664))
POLYGON((93.51194763183594 -10.16645336151123,99.80978393554688 -10.16645336151123,99.80978393554688 -0.5469627380371094,93.51194763183594 -0.5469627380371094,93.51194763183594 -10.16645336151123))
POLYGON((98.58527374267578 8.89725112915039,102.97188568115234 8.89725112915039,102.97188568115234 16.314071655273438,98.58527374267578 16.314071655273438,98.58527374267578 8.89725112915039))
POLYGON((-5.219332695007324 -2.9734725952148438,-4.890498161315918 -2.9734725952148438,-4.890498161315918 -2.5720162391662598,-5.219332695007324 -2.5720162391662598,-5.219332695007324 -2.9734725952148438))
POLYGON((47.191436767578125 70.5138168334961,54.34054183959961 70.5138168334961,54.34054183959961 77.62501525878906,47.191436767578125 77.62501525878906,47.191436767578125 70.5138168334961))
POLYGON((61.09543991088867 17.25535011291504,63.36943435668945 17.25535011291504,63.36943435668945 26.505577087402344,61.09543991088867 26.505577087402344,61.09543991088867 17.25535011291504))
POLYGON((34.103515625 30.770469665527344,38.428585052490234 30.770469665527344,38.428585052490234 31.656206130981445,34.103515625 31.656206130981445,34.103515625 30.770469665527344))
POLYGON((-44.470909118652344 93.3154067993164,-40.82379150390625 93.3154067993164,-40.82379150390625 97.37150573730469,-44.470909118652344 97.37150573730469,-44.470909118652344 93.3154067993164))
POLYGON((-2.8564341068267822 -0.5428368449211121,2.8296587467193604 -0.5428368449211121,2.8296587467193604 6.456708908081055,-2.8564341068267822 6.456708908081055,-2.8564341068267822 -0.5428368449211121))
POLYGON((99.40958404541016 -76.90959167480469,101.40363311767578 -76.90959167480469,101.40363311767578 -69.4654312133789,99.40958404541016 -69.4654312133789,99.40958404541016 -76.90959167480469))
POLYGON((6.840420722961426 -99.96369171142578,11.787900924682617 -99.96369171142578,11.787900924682617 -90.17442321777344,6.840420722961426 -90.17442321777344,6.840420722961426 -99.96369171142578))
POLYGON((-72.11788177490234 -85.79346466064453,-65.43191528320312 -85.79346466064453,-65.43191528320312 -79.50384521484375,-72.11788177490234 -79.50384521484375,-72.11788177490234 -85.79346466064453))
POLYGON((-68.66260528564453 12.637353897094727,-61.550453186035156 12.637353897094727,-61.550453186035156 13.780441284179688,-68.66260528564453 13.780441284179688,-68.66260528564453 12.637353897094727))
POLYGON((15.310938835144043 -75.09932708740234,24.9151611328125 -75.09932708740234,24.9151611328125 -73.06944274902344,15.310938835144043 -73.06944274902344,15.310938835144043 -75.09932708740234))
POLYGON((0.1598311811685562 80.47496795654297,4.252865791320801 80.47496795654297,4.252865791320801 86.869873046875,0.1598311811685562 86.869873046875,0.1598311811685562 80.47496795654297))
POLYGON((-51.414852142333984 47.108734130859375,-50.42520523071289 47.108734130859375,-50.42520523071289 48.42822265625,-51.414852142333984 48.42822265625,-51.414852142333984 47.108734130859375))
POLYGON((77.09618377685547 -25.691980361938477,83.4150390625 -25.691980361938477,83.4150390625 -18.2946834564209,77.09618377685547 -18.2946834564209,77.09618377685547 -25.691980361938477))
POLYGON((-36.24892044067383 30.062816619873047,-28.043048858642578 30.062816619873047,-28.043048858642578 35.859859466552734,-36.24892044067383 35.859859466552734,-36.24892044067383 30.062816619873047))
POLYGON((-29.697250366210938 99.734619140625,-23.758766174316406 99.734619140625,-23.758766174316406 108.21764373779297,-29.697250366210938 108.21764373779297,-29.697250366210938 99.734619140625))
POLYGON((7.745302200317383 -61.0828742980957,17.32464599609375 -61.0828742980957,17.32464599609375 -58.509178161621094,7.745302200317383 -58.509178161621094,7.745302200317383 -61.0828742980957))
POLYGON((81.16020202636719 -23.337514877319336,88.34918975830078 -23.337514877319336,88.34918975830078 -21.535541534423828,81.16020202636719 -21.535541534423828,81.16020202636719 -23.337514877319336))
POLYGON((56.626094818115234 -57.988033294677734,62.70103454589844 -57.988033294677734,62.70103454589844 -50.104061126708984,56.626094818115234 -50.104061126708984,56.626094818115234 -57.988033294677734))
POLYGON((-52.04078674316406 52.277713775634766,-46.99681091308594 52.277713775634766,-46.99681091308594 58.770084381103516,-52.04078674316406 58.770084381103516,-52.04078674316406 52.277713775634766))
POLYGON((84.84658813476562 61.033912658691406,85.63834381103516 61.033912658691406,85.63834381103516 70.61833190917969,84.84658813476562 70.61833190917969,84.84658813476562 61.033912658691406))
POLYGON((-80.20529174804688 -58.57651138305664,-78.02648162841797 -58.57651138305664,-78.02648162841797 -56.559295654296875,-80.20529174804688 -56.559295654296875,-80.20529174804688 -58.57651138305664))
POLYGON((-86.37097930908203 15.74902057647705,-84.85236358642578 15.74902057647705,-84.85236358642578 19.523197174072266,-86.37097930908203 19.523197174072266,-86.37097930908203 15.74902057647705))
POLYGON((-52.637672424316406 32.85227584838867,-50.58485412597656 32.85227584838867,-50.58485412597656 36.99935531616211,-52.637672424316406 36.99935531616211,-52.637672424316406 32.85227584838867))
POLYGON((70.07593536376953 62.67844772338867,75.44747924804688 62.67844772338867,75.44747924804688 65.2470932006836,70.07593536376953 65.2470932006836,70.07593536376953 62.67844772338867))
POLYGON((21.265411376953125 -53.79814529418945,29.10393524169922 -53.79814529418945,29.10393524169922 -43.987247467041016,21.265411376953125 -43.987247467041016,21.265411376953125 -53.79814529418945))
POLYGON((-94.87251281738281 41.39463806152344,-86.49629211425781 41.39463806152344,-86.49629211425781 49.69183349609375,-94.87251281738281 49.69183349609375,-94.87251281738281 41.39463806152344))
POLYGON((-43.81987762451172 37.08404541015625,-35.562870025634766 37.08404541015625,-35.562870025634766 45.61237716674805,-43.81987762451172 45.61237716674805,-43.81987762451172 37.08404541015625))
POLYGON((35.852664947509766 29.43347930908203,44.19153594970703 29.43347930908203,44.19153594970703 38.28922653198242,35.852664947509766 38.28922653198242,35.852664947509766 29.43347930908203))
POLYGON((52.03266906738281 85.03711700439453,54.59540557861328 85.03711700439453,54.59540557861328 88.98774719238281,52.03266906738281 88.98774719238281,52.03266906738281 85.03711700439453))
POLYGON((-79.3907470703125 -19.950319290161133,-76.39523315429688 -19.950319290161133,-76.39523315429688 -14.769424438476562,-79.3907470703125 -14.769424438476562,-79.3907470703125 -19.950319290161133))
POLYGON((36.43525314331055 -66.60819244384766,43.25615692138672 -66.60819244384766,43.25615692138672 -60.166053771972656,36.43525314331055 -60.166053771972656,36.43525314331055 -66.60819244384766))
POLYGON((92.28866577148438 -38.82732391357422,99.21975708007812 -38.82732391357422,99.21975708007812 -28.887279510498047,92.28866577148438 -28.887279510498047,92.28866577148438 -38.82732391357422))
POLYGON((-38.881446838378906 64.75735473632812,-36.78562927246094 64.75735473632812,-36.78562927246094 73.82913208007812,-38.881446838378906 73.82913208007812,-38.881446838378906 64.75735473632812))
POLYGON((64.5094223022461 59.70735549926758,70.12714385986328 59.70735549926758,70.12714385986328 67.02145385742188,64.5094223022461 67.02145385742188,64.5094223022461 59.70735549926758))
POLYGON((-52.97785186767578 74.572509765625,-45.17374038696289 74.572509765625,-45.17374038696289 75.101806640625,-52.97785186767578 75.101806640625,-52.97785186767578 74.572509765625))
POLYGON((69.53622436523438 -16.85737419128418,70.90380096435547 -16.85737419128418,70.90380096435547 -9.581511497497559,69.53622436523438 -9.581511497497559,69.53622436523438 -16.85737419128418))
POLYGON((99.76683807373047 90.94514465332031,101.8912124633789 90.94514465332031,101.8912124633789 91.3653793334961,99.76683807373047 91.3653793334961,99.76683807373047 90.94514465332031))
POLYGON((-64.00980377197266 -83.07027435302734,-57.9327507019043 -83.07027435302734,-57.9327507019043 -82.45020294189453,-64.00980377197266 -82.45020294189453,-64.00980377197266 -83.07027435302734))
POLYGON((-75.64762878417969 82.04012298583984,-67.68150329589844 82.04012298583984,-67.68150329589844 82.8497543334961,-75.64762878417969 82.8497543334961,-75.64762878417969 82.04012298583984))
POLYGON((27.216548919677734 32.073692321777344,33.47748565673828 32.073692321777344,33.47748565673828 32.68600845336914,27.216548919677734 32.68600845336914,27.216548919677734 32.073692321777344))
POLYGON((-47.186100006103516 2.6233136653900146,-45.53363037109375 2.6233136653900146,-45.53363037109375 11.640829086303711,-47.186100006103516 11.640829086303711,-47.186100006103516 2.6233136653900146))
POLYGON((-8.79729175567627 -73.12725067138672,-4.603396415710449 -73.12725067138672,-4.603396415710449 -71.50345611572266,-8.79729175567627 -71.50345611572266,-8.79729175567627 -73.12725067138672))
POLYGON((-93.72919464111328 -55.15277099609375,-87.54146575927734 -55.15277099609375,-87.54146575927734 -52.91167068481445,-93.72919464111328 -52.91167068481445,-93.72919464111328 -55.15277099609375))
POLYGON((-2.7203924655914307 35.52488327026367,-1.4959710836410522 35.52488327026367,-1.4959710836410522 39.67273712158203,-2.7203924655914307 39.67273712158203,-2.7203924655914307 35.52488327026367))
POLYGON((56.52287292480469 24.420047760009766,61.29383850097656 24.420047760009766,61.29383850097656 32.4943733215332,56.52287292480469 32.4943733215332,56.52287292480469 24.420047760009766))
POLYGON((-66.77130889892578 -6.227613925933838,-66.17848205566406 -6.227613925933838,-66.17848205566406 3.447007656097412,-66.77130889892578 3.447007656097412,-66.77130889892578 -6.227613925933838))
POLYGON((-69.05667877197266 1.7092913389205933,-64.57384490966797 1.7092913389205933,-64.57384490966797 6.163163661956787,-69.05667877197266 6.163163661956787,-69.05667877197266 1.7092913389205933))
POLYGON((-10.259337425231934 -3.930081844329834,-3.246102809906006 -3.930081844329834,-3.246102809906006 2.5614609718322754,-10.259337425231934 2.5614609718322754,-10.259337425231934 -3.930081844329834))
