POLYGON ((146.372604 -41.8344345, 146.372604 -41.8344345, 146.372604 -41.8344231, 146.372604 -41.8344231, 146.372604 -41.8344345))
POLYGON ((146.38205 -41.8519402, 146.38205 -41.8519402, 146.38205 -41.8519325, 146.38205 -41.8519325, 146.38205 -41.8519402))
POLYGON ((146.296432 -41.9124794, 146.296432 -41.9124794, 146.296432 -41.9124603, 146.296432 -41.9124603, 146.296432 -41.9124794))
POLYGON ((146.436279 -41.7873611, 146.436279 -41.7873611, 146.436279 -41.7873535, 146.436279 -41.7873535, 146.436279 -41.7873611))
