POLYGON ((15.0780993 49.5419884, 15.0781202 49.5419884, 15.0781202 49.5419884, 15.0780993 49.5419884, 15.0780993 49.5419884))
POLYGON ((6.60376644 51.4873695, 6.60376692 51.4873695, 6.60376692 51.4873695, 6.60376644 51.4873695, 6.60376644 51.4873695))
POLYGON ((15.8629847 50.0158005, 15.8629932 50.0158005, 15.8629932 50.0158005, 15.8629847 50.0158005, 15.8629847 50.0158005))
POLYGON ((14.021801 50.2705421, 14.0218039 50.2705421, 14.0218039 50.2705421, 14.021801 50.2705421, 14.021801 50.2705421))
