POLYGON ((-86.4996507402 32.4754860835, -86.4947807386 32.4737880833, -86.4939147384 32.4734700834, -86.4923967383 32.4729330833, -86.4857267357 32.4706590832, -86.4820737348 32.4729810838, -86.4818587347 32.4730670834, -86.480861735 32.473490084, -86.479686735 32.4739680836, -86.4794547343 32.4736320838, -86.4792497342 32.4733040835, -86.4780417337 32.4711200836, -86.4774887336 32.4701380834, -86.4769777332 32.4691670832, -86.4768937335 32.4690310826, -86.4761127328 32.4676530823, -86.4758207327 32.4671450822, -86.4757107331 32.4669930828, -86.4753097333 32.4663530822, -86.475244733 32.4662350824, -86.4752077332 32.4661470822, -86.475090733 32.4659420823, -86.4751177328 32.4655300823, -86.4753147324 32.4634160821, -86.475372733 32.4630630817, -86.4753867324 32.4626670817, -86.475408733 32.4623080815, -86.4756127323 32.4601130813, -86.4756137331 32.4600170809, -86.4755767324 32.4599720811, -86.4755067329 32.4599350808, -86.4752517327 32.4598860812, -86.4752607329 32.4596560812, -86.4752777326 32.4595810807, -86.4753727321 32.4593130812, -86.4755787329 32.4594140812, -86.4763737329 32.4600570811, -86.4765927332 32.4603530807, -86.4769197335 32.4605820814, -86.4769147334 32.4609350809, -86.4774237333 32.4615110812, -86.4782757332 32.4621060811, -86.4787157334 32.4624970811, -86.4794537336 32.4633460818, -86.4818847346 32.4635020816, -86.4819177342 32.4631050816, -86.4819077342 32.4629600811, -86.4818657343 32.4628150811, -86.4818337346 32.4627450811, -86.4817937344 32.4626800812, -86.4816947346 32.4625560812, -86.4815737343 32.4624490811, -86.4810287345 32.462092081, -86.4807627343 32.4619090812, -86.4806357341 32.461811081, -86.4805207345 32.4617050812, -86.4804677339 32.461647081, -86.480374734 32.4615260811, -86.4802957344 32.461399081, -86.4802327337 32.4612640813, -86.4801837342 32.4611240811, -86.4801547339 32.4609820812, -86.480143734 32.4608380809, -86.4801547339 32.4606190806, -86.4801997341 32.4603750806, -86.4803017342 32.4601700812, -86.4804357341 32.4599780812, -86.4818407342 32.4587960808, -86.4820197343 32.4586360805, -86.4821847342 32.4584660807, -86.4823887344 32.4582300807, -86.4835197349 32.4568490802, -86.4843747352 32.4559220798, -86.4845347351 32.4557200794, -86.4847447351 32.45550308, -86.4849497352 32.4552640796, -86.4856047355 32.4545910797, -86.4860297356 32.454142079, -86.4860737351 32.454077079, -86.4866257355 32.4534240789, -86.4869657352 32.4529930793, -86.4871527357 32.4527760787, -86.4872267353 32.4526580792, -86.4874037358 32.4524140789, -86.4877227356 32.4520000788, -86.4878547359 32.4518110791, -86.4880457357 32.4514850786, -86.4881407361 32.4512820783, -86.4882817357 32.4509390782, -86.4886167354 32.4499590784, -86.4886877356 32.4497330783, -86.4889677359 32.4501030787, -86.4894717357 32.4507950785, -86.489757736 32.4512220785, -86.4899457363 32.4514880789, -86.4901137365 32.451745079, -86.490285736 32.4520250788, -86.4903597366 32.4521320784, -86.4919327369 32.4547180795, -86.4923177369 32.4553630792, -86.4960457381 32.4615150809, -86.4966467389 32.4625220805, -86.4974097392 32.4637490807, -86.497574739 32.4639900807, -86.4979817396 32.4645370812, -86.498318739 32.4649370809, -86.4986297393 32.4652860812, -86.4988457393 32.4655140811, -86.4997697401 32.4664510813, -86.4999977397 32.4666710814, -86.5002067399 32.4668900814, -86.5008077398 32.4674470815, -86.5013377404 32.4677950815, -86.50147874 32.4678780816, -86.5016237406 32.4679540817, -86.5018937401 32.4681310818, -86.5034957408 32.4686820816, -86.5039547412 32.4688150815, -86.5045587415 32.4690110818, -86.5048117412 32.4690990821, -86.5060517415 32.4694930818, -86.5064737422 32.4696160817, -86.5073957424 32.4699130821, -86.5085567422 32.4702680822, -86.5087807425 32.4704730822, -86.5087927422 32.4705740818, -86.5087657424 32.470770082, -86.5087177427 32.4708180822, -86.5086207426 32.4708640823, -86.508808743 32.4714740823, -86.5087747426 32.4717530825, -86.5088667427 32.4718720823, -86.5091077427 32.4720170821, -86.5096607429 32.4721830821, -86.5098277433 32.4721870821, -86.5102957431 32.4720380826, -86.5104237432 32.4721270826, -86.5103817433 32.4722600827, -86.5103097434 32.4723220821, -86.5102687434 32.4723290825, -86.5101487428 32.4724400823, -86.5101417431 32.4724920824, -86.5101327429 32.4725090827, -86.5101337427 32.4725360824, -86.5100697432 32.4726150827, -86.509844743 32.4728130823, -86.5097727431 32.4728580825, -86.5096837434 32.4729440829, -86.5096607429 32.4730340824, -86.509644743 32.4730680822, -86.5096047428 32.4731100827, -86.5095887429 32.4731450828, -86.5095567432 32.4731790826, -86.5093717432 32.4733380824, -86.5092757429 32.473397083, -86.5091667432 32.4734500829, -86.5090667427 32.4735180829, -86.5089447425 32.473576083, -86.5089237426 32.4735800829, -86.508823743 32.4736500829, -86.5087847427 32.4737060829, -86.508736743 32.4737260826, -86.5086887424 32.4737620829, -86.508623743 32.4737760827, -86.5085347424 32.4738110826, -86.5083577429 32.4739490828, -86.5083097423 32.4740180828, -86.5083027426 32.4740460831, -86.5082057425 32.4741290828, -86.5080767427 32.4741440829, -86.507946743 32.4742330831, -86.5079087424 32.4744060831, -86.5078937424 32.4745090828, -86.5078617426 32.4745440831, -86.5077887428 32.4746040833, -86.5076037428 32.4746210832, -86.5075667421 32.4746100831, -86.5075227427 32.4746070828, -86.5074417425 32.4746830833, -86.5074127422 32.4748060829, -86.507305742 32.4749040834, -86.5072497419 32.4748970832, -86.5071767422 32.4748970832, -86.5070807419 32.4749190834, -86.5067257421 32.475164083, -86.5065727419 32.475238083, -86.5064757418 32.4752670833, -86.5063227426 32.4753020833, -86.5062577423 32.4753080832, -86.5062017422 32.4753220835, -86.5061687417 32.4753440828, -86.5061447423 32.4753440828, -86.5061047421 32.4753720834, -86.506048742 32.4754260832, -86.5060017422 32.4756340831, -86.5058817416 32.4757300835, -86.505735742 32.475766083, -86.5056697419 32.4758030835, -86.5055347422 32.4759320837, -86.5055077415 32.476017083, -86.5054647419 32.4762210832, -86.5054247417 32.4762760836, -86.5053447422 32.4763460837, -86.5052477421 32.4764190832, -86.5051927419 32.4764760834, -86.5051617419 32.4767800831, -86.5051327416 32.4768390837, -86.5048337419 32.4771050835, -86.5047287414 32.4771820837, -86.5046407415 32.4772160834, -86.4996507402 32.4754860835))
POLYGON ((-86.4812757352 32.4774470844, -86.4812727349 32.4768720841, -86.4812297352 32.4764550847, -86.4811957349 32.4762950839, -86.4811357346 32.4760840846, -86.4810237353 32.4758090841, -86.480953735 32.4756760839, -86.4808737347 32.4755470842, -86.4807867346 32.4754220841, -86.4799047345 32.4742660836, -86.479686735 32.4739680836, -86.480861735 32.473490084, -86.4818587347 32.4730670834, -86.4820737348 32.4729810838, -86.4857267357 32.4706590832, -86.4923967383 32.4729330833, -86.4939147384 32.4734700834, -86.4947807386 32.4737880833, -86.4996507402 32.4754860835, -86.5046407415 32.4772160834, -86.5046157414 32.4772370835, -86.5045387414 32.4772470837, -86.504345742 32.477227084, -86.5041467418 32.4771980836, -86.5040727412 32.4771990839, -86.5040337418 32.477227084, -86.504001742 32.4772610837, -86.5039857412 32.4773170838, -86.5039537414 32.4773580835, -86.5039307419 32.4774190836, -86.5038827413 32.4774610836, -86.5038517413 32.4776400838, -86.5038197415 32.4777020841, -86.5037867419 32.4777440839, -86.5037797413 32.4777700839, -86.5037107417 32.4778630841, -86.5036757416 32.4779510842, -86.5036517413 32.4779780837, -86.5036137417 32.4780870842, -86.5035927417 32.4781840838, -86.5035697413 32.4782370839, -86.5035467417 32.4793940845, -86.5035237413 32.4794390844, -86.5035187412 32.4794650839, -86.5034637419 32.4795270844, -86.5034557415 32.4795600845, -86.5034077418 32.4796220842, -86.5033917419 32.4796580844, -86.5032877413 32.4797690842, -86.5032317412 32.4799060841, -86.5032077418 32.4799330845, -86.5031837415 32.4800220843, -86.503160741 32.4800580844, -86.5031447411 32.4801680842, -86.5031617418 32.4803120847, -86.5032447416 32.480497084, -86.5033437413 32.4806550843, -86.5035117416 32.4808380846, -86.5035487414 32.4809020847, -86.5035577416 32.4809900848, -86.5035487414 32.4810180845, -86.5034687419 32.4811080843, -86.5034537418 32.4811490845, -86.5034007412 32.4812230842, -86.5033267416 32.4814110848, -86.5032467412 32.4815430845, -86.5032467412 32.4815630848, -86.5032147415 32.4815980847, -86.5030387417 32.4817500844, -86.5027387413 32.4819690848, -86.5026397415 32.482028085, -86.5025317416 32.4821130847, -86.5024107412 32.482234085, -86.5023957411 32.4822830846, -86.5023547411 32.4823310847, -86.5023237412 32.4824210847, -86.5021847412 32.4827380853, -86.5021207417 32.4828590847, -86.5021177413 32.482883085, -86.5020857415 32.4829180851, -86.5019697412 32.483210085, -86.5019367415 32.4834960847, -86.5019577415 32.4836580853, -86.5020047413 32.4838800848, -86.5020177417 32.4839110851, -86.5020427409 32.4841040851, -86.5020237416 32.4842450854, -86.5019377414 32.4844710852, -86.5018967414 32.4845210854, -86.5018817413 32.484569085, -86.5018397415 32.4846250851, -86.5018357413 32.4846430857, -86.5017527414 32.4847440853, -86.5015687413 32.4849380853, -86.500918741 32.4855150853, -86.500790741 32.4856480853, -86.5007587412 32.4856960859, -86.5007507408 32.485729086, -86.5007267414 32.4857570857, -86.5007117413 32.4858130857, -86.5006797406 32.485847086, -86.5006637407 32.4859030853, -86.5005837413 32.4860130855, -86.5004297413 32.4864780855, -86.5003577413 32.486936086, -86.5003327412 32.4869700859, -86.5003017412 32.4870380856, -86.5002457412 32.4871110863, -86.5001567406 32.4872060856, -86.5001017412 32.487356086, -86.5000217409 32.4874630861, -86.4999807409 32.4875020861, -86.4999477412 32.4875880861, -86.4998987408 32.4876500863, -86.4998577408 32.4877330863, -86.4998507412 32.4877610862, -86.499825741 32.4877810858, -86.4998017408 32.4878570858, -86.4997777405 32.4878840861, -86.4996317409 32.488214086, -86.4996077406 32.4882420864, -86.4995427412 32.4883860861, -86.4994787407 32.488483086, -86.4994697405 32.4885110864, -86.4994297412 32.4885790864, -86.4994047411 32.4886070859, -86.4993967407 32.4886350862, -86.4993157405 32.4887240865, -86.4992427407 32.4888310865, -86.4991697409 32.488905086, -86.4987567405 32.4892360861, -86.4986247402 32.4894560867, -86.4985707407 32.4896200867, -86.4985547408 32.4896540863, -86.4985307405 32.4896820863, -86.4985147406 32.4897300862, -86.4984897405 32.4897570867, -86.4982597403 32.4903320866, -86.4982477407 32.4904180869, -86.4981827404 32.4906180871, -86.4981367403 32.490733087, -86.498117741 32.4908230869, -86.4980697404 32.4909410871, -86.4980367408 32.490975087, -86.4979957408 32.4910640865, -86.497922741 32.491168087, -86.4978997405 32.491217087, -86.4976397402 32.4915880869, -86.4972157408 32.4921260872, -86.4971057403 32.4922490872, -86.4970897404 32.4922830874, -86.4969357404 32.4924270875, -86.4968947404 32.4924860869, -86.4968387403 32.4925370873, -86.4967247405 32.492686087, -86.4965227399 32.4928890871, -86.4964127403 32.4930350873, -86.4962927398 32.4931610873, -86.4960367397 32.4934910876, -86.4958587403 32.4936600878, -86.4956227403 32.4938610877, -86.4951897398 32.4941690877, -86.4948577395 32.4944390875, -86.4946587402 32.4946310875, -86.4945457394 32.4947830879, -86.4945207401 32.4948310881, -86.4944477394 32.4949350881, -86.4944247399 32.4950020876, -86.4943837399 32.495052088, -86.4943517401 32.4951400879, -86.49425474 32.4953480877, -86.4942297399 32.4953740879, -86.49420874 32.4954300881, -86.4940477394 32.4957160883, -86.4940437401 32.4957400882, -86.4940117394 32.4957750879, -86.4939947397 32.4958160882, -86.49355174 32.4963960885, -86.4934707398 32.4966180885, -86.4934117394 32.4968650883, -86.4933777399 32.4971670887, -86.4933147393 32.4972790883, -86.49326474 32.4973220882, -86.4931667392 32.4973740882, -86.4929367399 32.4976010885, -86.492823739 32.4977430882, -86.4928087398 32.4978270881, -86.492787739 32.4978560887, -86.4927667391 32.4978730888, -86.4927247393 32.4978920884, -86.4926087398 32.4979950885, -86.4924977395 32.4980980884, -86.4924227392 32.4981830888, -86.4924167393 32.4982170882, -86.4924217393 32.4982610885, -86.4924027391 32.4982950887, -86.4923447393 32.4983400883, -86.4919417389 32.4985510885, -86.4918377392 32.498616089, -86.4918047396 32.4986520884, -86.4917627388 32.4987310885, -86.4917417389 32.4988170884, -86.4917447393 32.4995910893, -86.4913937388 32.5000890889, -86.4913407391 32.5000900889, -86.4912767395 32.5001370893, -86.4912637391 32.5001520889, -86.4912567394 32.5001800894, -86.4912317393 32.5002140887, -86.4910447388 32.5007130895, -86.4909387394 32.5013360895, -86.4909027394 32.5014160897, -86.4908797389 32.5015290893, -86.4908627392 32.5015600895, -86.4908437389 32.5017080894, -86.490771739 32.5018860898, -86.4907397392 32.5019280897, -86.4907317388 32.5019620892, -86.490699739 32.5019980896, -86.490699739 32.5020170898, -86.490658739 32.5020600897, -86.4906197386 32.5021140894, -86.4906037387 32.5021480895, -86.4902887391 32.5024460894, -86.4902407385 32.5025010897, -86.4900467393 32.5026670895, -86.4900547387 32.5026880897, -86.4900317392 32.5027430898, -86.4900067391 32.5027630899, -86.4900077389 32.5027840893, -86.4899667389 32.5028250895, -86.4899667389 32.5028460896, -86.4899277385 32.5028870898, -86.4893327385 32.50378809, -86.4892037386 32.5039150901, -86.4889467387 32.5042530898, -86.4889377385 32.5042810897, -86.4889147389 32.5043010902, -86.488898739 32.50435009, -86.488842739 32.5044220902, -86.4886287387 32.5046330898, -86.4885197389 32.5047780899, -86.4884637388 32.50490209, -86.4884157383 32.5049570903, -86.4884157383 32.5049780899, -86.488375739 32.5050190899, -86.4882957386 32.5051400904, -86.4882667383 32.5051650901, -86.4872307382 32.5042550898, -86.4865827376 32.5036730901, -86.4848627378 32.5021690898, -86.4842777369 32.5016460898, -86.4840477368 32.5014300897, -86.4837187369 32.5011010899, -86.4834027365 32.5007600895, -86.4832027365 32.5005260892, -86.4830127365 32.5002900896, -86.4828297371 32.5000460895, -86.4824837366 32.4995500891, -86.4819637361 32.4987690888, -86.4811977363 32.497591089, -86.4809717364 32.4972030887, -86.4808007358 32.4968740885, -86.4803907357 32.4960090885, -86.4802417357 32.4956750886, -86.4800097359 32.4951280887, -86.4789667353 32.4927330882, -86.4788617348 32.4924570876, -86.4787567352 32.4921050876, -86.4786987355 32.4918170877, -86.4786647352 32.4915240875, -86.4786617348 32.4913070872, -86.478675735 32.4910890878, -86.4787967354 32.4899420871, -86.4788717348 32.4893480872, -86.4790327354 32.4882020866, -86.479173735 32.4874090867, -86.4794137352 32.4861800865, -86.4794567348 32.4859760861, -86.4795347346 32.485690086, -86.4797057352 32.4852000859, -86.4798137352 32.4849240865, -86.4802637355 32.4839000861, -86.4804017356 32.483554086, -86.4805287349 32.4832070858, -86.4806887356 32.482715086, -86.480799735 32.4822870857, -86.4809107354 32.4817040853, -86.4810687356 32.4805930853, -86.4811517354 32.4799390848, -86.4811837352 32.4796490847, -86.4812067356 32.4793570846, -86.481266735 32.4779890849, -86.4812757352 32.4774470844))
POLYGON ((-86.4767207342 32.489174087, -86.4761557343 32.4891600873, -86.4752177341 32.4891670872, -86.471437733 32.4893030877, -86.4703237322 32.4893370874, -86.4698937329 32.4893370874, -86.4696387327 32.4893280872, -86.4678267319 32.4892330878, -86.467477732 32.4892220872, -86.4673147317 32.4892090877, -86.4674327317 32.4889010875, -86.4676897317 32.4883630875, -86.468241732 32.4873050872, -86.468395732 32.4870450871, -86.4686137325 32.4867310872, -86.4689947322 32.4862410867, -86.4691787324 32.4859910866, -86.469375732 32.4856970869, -86.4694567322 32.4855630867, -86.4695047319 32.4853970863, -86.4695527325 32.4851910868, -86.4695807321 32.4849740864, -86.4695897323 32.4846110862, -86.4695837324 32.4833730864, -86.4695647322 32.4819970856, -86.4695567318 32.4802610857, -86.4695647322 32.4794000855, -86.469575732 32.4792580856, -86.469601732 32.4790440855, -86.4696407323 32.4788310851, -86.4696977322 32.4786430852, -86.4697597322 32.4784880854, -86.469883732 32.4782220852, -86.4700287318 32.4779640853, -86.470463732 32.4772640847, -86.4705387323 32.4771360845, -86.4706047324 32.4770020845, -86.470740732 32.476642085, -86.4708247325 32.4763090849, -86.4708457324 32.4760930846, -86.4708487319 32.4759500845, -86.4708757317 32.4757360848, -86.4708727322 32.4755410844, -86.4708067321 32.4748270843, -86.4706597318 32.473967084, -86.4706237318 32.4736640842, -86.4706507316 32.4735380842, -86.4707377316 32.4732220842, -86.4709057318 32.4728130838, -86.4714767325 32.4715140835, -86.4715317318 32.4713760834, -86.4715857322 32.4711610838, -86.4716197317 32.4709430833, -86.4716517324 32.4705830831, -86.4716567324 32.470411083, -86.474141733 32.4705710836, -86.4743957325 32.4705930833, -86.4746607328 32.4706050836, -86.4747307332 32.4698500829, -86.4747617331 32.4694320832, -86.4748107326 32.469063083, -86.474962733 32.4675710823, -86.4761127328 32.4676530823, -86.4768937335 32.4690310826, -86.4769777332 32.4691670832, -86.4774887336 32.4701380834, -86.4780417337 32.4711200836, -86.4792497342 32.4733040835, -86.4794547343 32.4736320838, -86.479686735 32.4739680836, -86.4799047345 32.4742660836, -86.4807867346 32.4754220841, -86.4808737347 32.4755470842, -86.480953735 32.4756760839, -86.4810237353 32.4758090841, -86.4811357346 32.4760840846, -86.4811957349 32.4762950839, -86.4812297352 32.4764550847, -86.4812727349 32.4768720841, -86.4812757352 32.4774470844, -86.481266735 32.4779890849, -86.4812067356 32.4793570846, -86.4811837352 32.4796490847, -86.4811517354 32.4799390848, -86.4810687356 32.4805930853, -86.4809107354 32.4817040853, -86.480799735 32.4822870857, -86.4806887356 32.482715086, -86.4805287349 32.4832070858, -86.4804017356 32.483554086, -86.4802637355 32.4839000861, -86.4798137352 32.4849240865, -86.4797057352 32.4852000859, -86.4795347346 32.485690086, -86.4794567348 32.4859760861, -86.4794137352 32.4861800865, -86.479173735 32.4874090867, -86.4790327354 32.4882020866, -86.4788717348 32.4893480872, -86.478598735 32.4893200872, -86.4767207342 32.489174087))
POLYGON ((-86.4653807308 32.4737290845, -86.4656957305 32.4731290845, -86.4657767306 32.4729230841, -86.4658357302 32.472713084, -86.4659197308 32.4723600837, -86.4662607303 32.4710910835, -86.4669067304 32.4689870831, -86.4675067305 32.4671880828, -86.4675437312 32.4669720827, -86.467554731 32.4666850823, -86.4675407308 32.4664680828, -86.4674597306 32.4657590827, -86.4672677301 32.4637270823, -86.4672287306 32.463400082, -86.4671237302 32.4621710821, -86.4671227303 32.4620960814, -86.4671047308 32.4619470819, -86.4671037301 32.4617420814, -86.4671837304 32.4608850813, -86.4672767303 32.4600050815, -86.4673587303 32.459314081, -86.4673737304 32.459117081, -86.4675977307 32.4570210804, -86.4676447306 32.4566890803, -86.4679187302 32.4567590805, -86.4687347302 32.4569330804, -86.4688967305 32.4569610807, -86.4697077305 32.4571270804, -86.4702917306 32.4572230809, -86.4703627308 32.4567990806, -86.4703857312 32.4565870805, -86.4703827309 32.4564440805, -86.4703587306 32.4562340806, -86.4708107314 32.4561910801, -86.4710527312 32.4562120805, -86.471351731 32.4564080801, -86.4718137318 32.4569400805, -86.4720207315 32.4571250809, -86.4724607318 32.4573750808, -86.4728957319 32.4576690805, -86.4735907324 32.4580980809, -86.4738727325 32.4584640804, -86.4747537327 32.4591900809, -86.4753727321 32.4593130812, -86.4752777326 32.4595810807, -86.4752607329 32.4596560812, -86.4752517327 32.4598860812, -86.4755067329 32.4599350808, -86.4755767324 32.4599720811, -86.4756137331 32.4600170809, -86.4756127323 32.4601130813, -86.475408733 32.4623080815, -86.4753867324 32.4626670817, -86.475372733 32.4630630817, -86.4753147324 32.4634160821, -86.4751177328 32.4655300823, -86.475090733 32.4659420823, -86.4752077332 32.4661470822, -86.475244733 32.4662350824, -86.4753097333 32.4663530822, -86.4757107331 32.4669930828, -86.4758207327 32.4671450822, -86.4761127328 32.4676530823, -86.474962733 32.4675710823, -86.4748107326 32.469063083, -86.4747617331 32.4694320832, -86.4747307332 32.4698500829, -86.4746607328 32.4706050836, -86.4743957325 32.4705930833, -86.474141733 32.4705710836, -86.4716567324 32.470411083, -86.4716517324 32.4705830831, -86.4716197317 32.4709430833, -86.4715857322 32.4711610838, -86.4715317318 32.4713760834, -86.4714767325 32.4715140835, -86.4709057318 32.4728130838, -86.4707377316 32.4732220842, -86.4706507316 32.4735380842, -86.4706237318 32.4736640842, -86.4700707316 32.4736670838, -86.4696467313 32.4736810844, -86.4691357318 32.4736870843, -86.4680047313 32.4737140843, -86.4669897312 32.4737180842, -86.4666517311 32.473709084, -86.4663977306 32.473709084, -86.4653807308 32.4737290845))
POLYGON ((-86.453693728 32.4919120889, -86.4536287277 32.4914520883, -86.4535867279 32.4910850886, -86.4535597281 32.4899970882, -86.453570728 32.4890600883, -86.4535617278 32.4885550876, -86.4535747282 32.4873250877, -86.4535687274 32.4867480872, -86.453544728 32.4860980875, -86.4535027273 32.4857380873, -86.4533967279 32.4852140869, -86.4532797277 32.4848200871, -86.4532077278 32.4846120872, -86.4530717273 32.4842710873, -86.4529497271 32.484000087, -86.4527487273 32.4836040866, -86.4521027272 32.4821910862, -86.4519137271 32.4817090867, -86.4518697267 32.4814800867, -86.4518377269 32.4812490863, -86.451826727 32.4811210864, -86.451821727 32.4809280861, -86.4518377269 32.4799400858, -86.4518827271 32.479492086, -86.4519167265 32.4792750863, -86.451944727 32.478910086, -86.452011727 32.4775760859, -86.4520317271 32.4769950852, -86.4520467271 32.4767770852, -86.4520487268 32.4765030856, -86.452011727 32.4759120852, -86.4519487263 32.4746830848, -86.4519247269 32.4740360848, -86.4518867264 32.4735150848, -86.4518557264 32.4726140846, -86.4517457268 32.4711890843, -86.4517117265 32.4708380841, -86.4516627261 32.4707910843, -86.451524726 32.469951084, -86.4519907262 32.4697350836, -86.452211727 32.4696260836, -86.4526287267 32.4694000836, -86.4529697272 32.4699070842, -86.4530617264 32.4700300843, -86.453155727 32.4701180836, -86.4533387273 32.4702530837, -86.4535157268 32.4703590841, -86.4537277274 32.4704780842, -86.4545507271 32.4708500843, -86.4550507276 32.4710560841, -86.4560097276 32.4714690842, -86.4565267279 32.4717050843, -86.4567967282 32.4712550844, -86.4569337276 32.4709960838, -86.4569457282 32.4708910839, -86.456941728 32.4707010841, -86.4568627283 32.470265084, -86.4568047277 32.4700450836, -86.4567797276 32.4699040837, -86.4567497274 32.4696910837, -86.456756728 32.4696090834, -86.4567777279 32.4695520834, -86.456833728 32.4694740839, -86.4569307281 32.4693890836, -86.4570757279 32.4693190834, -86.4572807279 32.4691860835, -86.4573647276 32.4690970836, -86.457413728 32.4689950834, -86.4574447279 32.4688490837, -86.4574407277 32.4684890834, -86.4576537282 32.4685200837, -86.4579027277 32.4685750834, -86.4581547285 32.4686180834, -86.4583247284 32.4686280831, -86.4584947282 32.4686240837, -86.4585797286 32.4686180834, -86.4587457283 32.4685970836, -86.4589087285 32.4685580831, -86.4590657289 32.4685030833, -86.4592127283 32.4684330832, -86.4593507284 32.4683500835, -86.4595397285 32.4682050831, -86.4596497281 32.4680970832, -86.4597827282 32.4679140835, -86.4598487283 32.4677820835, -86.4599207283 32.4675770834, -86.4599357284 32.467508083, -86.459952729 32.4673660833, -86.4599557284 32.4671490832, -86.4599467282 32.4668620826, -86.4600907291 32.4668500826, -86.4603387288 32.4668430833, -86.4605927292 32.4668410832, -86.4607607285 32.4668510831, -86.4609257293 32.4668840833, -86.4613887291 32.4670610832, -86.4616087292 32.4671550828, -86.4617927293 32.4672220833, -86.4619077289 32.4672520828, -86.4620127294 32.4672690827, -86.4623137297 32.4672890831, -86.462830729 32.4673040828, -86.4630807293 32.4673290831, -86.4632457291 32.4673570832, -86.4634907293 32.4674130834, -86.4636507301 32.4674590829, -86.4638947296 32.4675180828, -86.4644707302 32.467604083, -86.4646387296 32.4676220832, -86.4647247298 32.4676100833, -86.4648097302 32.4675200829, -86.4648327297 32.4674220827, -86.46485173 32.4672100826, -86.4649217303 32.4670030827, -86.4651347299 32.466533083, -86.4652077297 32.4664030826, -86.46525173 32.4663410829, -86.4654887299 32.4660350826, -86.4657717306 32.466004083, -86.4660647305 32.4659610825, -86.4664827301 32.4658860827, -86.4667317305 32.4658510828, -86.4674597306 32.4657590827, -86.4675407308 32.4664680828, -86.467554731 32.4666850823, -86.4675437312 32.4669720827, -86.4675067305 32.4671880828, -86.4669067304 32.4689870831, -86.4662607303 32.4710910835, -86.4659197308 32.4723600837, -86.4658357302 32.472713084, -86.4657767306 32.4729230841, -86.4656957305 32.4731290845, -86.4653807308 32.4737290845, -86.4663977306 32.473709084, -86.4666517311 32.473709084, -86.4669897312 32.4737180842, -86.4680047313 32.4737140843, -86.4691357318 32.4736870843, -86.4696467313 32.4736810844, -86.4700707316 32.4736670838, -86.4706237318 32.4736640842, -86.4706597318 32.473967084, -86.4708067321 32.4748270843, -86.4708727322 32.4755410844, -86.4708757317 32.4757360848, -86.4708487319 32.4759500845, -86.4708457324 32.4760930846, -86.4708247325 32.4763090849, -86.470740732 32.476642085, -86.4706047324 32.4770020845, -86.4705387323 32.4771360845, -86.470463732 32.4772640847, -86.4700287318 32.4779640853, -86.469883732 32.4782220852, -86.4697597322 32.4784880854, -86.4696977322 32.4786430852, -86.4696407323 32.4788310851, -86.469601732 32.4790440855, -86.469575732 32.4792580856, -86.4695647322 32.4794000855, -86.4695567318 32.4802610857, -86.4695647322 32.4819970856, -86.4695837324 32.4833730864, -86.4695897323 32.4846110862, -86.4695807321 32.4849740864, -86.4695527325 32.4851910868, -86.4695047319 32.4853970863, -86.4694567322 32.4855630867, -86.469375732 32.4856970869, -86.4691787324 32.4859910866, -86.4689947322 32.4862410867, -86.4686137325 32.4867310872, -86.468395732 32.4870450871, -86.468241732 32.4873050872, -86.4676897317 32.4883630875, -86.4674327317 32.4889010875, -86.4673147317 32.4892090877, -86.4672167318 32.4895250877, -86.466769732 32.4911990877, -86.4666297313 32.4911890883, -86.4663567315 32.4911940884, -86.4654117317 32.4912230881, -86.4653277311 32.4912300877, -86.4610647301 32.4913450884, -86.4605527299 32.4913690879, -86.4601327298 32.491410088, -86.4598807299 32.4914480884, -86.458546729 32.4916920883, -86.4582927295 32.4917270888, -86.4581227296 32.4917430884, -86.4579527297 32.4917520884, -86.4576927294 32.4917520884, -86.4573547293 32.4917320888, -86.4568447288 32.4916860888, -86.4561677287 32.4916390886, -86.455827729 32.4916410881, -86.4554917285 32.4916640882, -86.4549567288 32.4917290883, -86.453693728 32.4919120889))
