POLYGON ((-157.82567111 21.282911459, -157.825597999 21.2826591738, -157.820458561 21.2781371427, -157.81754671 21.275061486, -157.817595465 21.2749468267, -157.817766955 21.2750157265, -157.832818192 21.288122184, -157.832842809 21.2882368433, -157.832793532 21.2883057431, -157.832205952 21.2883283624, -157.826087504 21.2830722252, -157.82567111 21.282911459))
POLYGON ((-158.022943556 21.3639802351, -158.023383438 21.3652197365, -158.023358952 21.3654950317, -158.023187115 21.3657013837, -158.022843962 21.3658847692, -158.022231592 21.3658844218, -158.021913402 21.3657233518, -158.021938062 21.3653565375, -158.022551301 21.3642783232, -158.022943556 21.3639802351))
POLYGON ((-158.038057615 21.3642184538, -158.038131551 21.3636448099, -158.038425775 21.3633695147, -158.038719956 21.3633009623, -158.039233948 21.3635765614, -158.039698967 21.3640586862, -158.039674524 21.3642652119, -158.039037147 21.3647926186, -158.038767583 21.3648611711, -158.038645195 21.3648154116, -158.038057615 21.3642184538))
POLYGON ((-158.0341971 21.349209329, -158.033952196 21.3490946697, -158.033781357 21.347901058, -158.033879605 21.3475800467, -158.034541078 21.3476492938, -158.034810339 21.34781006, -158.03517763 21.348223285, -158.0341971 21.349209329))
POLYGON ((-157.730386143 21.3815067851, -157.730410629 21.3813458887, -157.731463054 21.3798540587, -157.731658683 21.3797621923, -157.732050591 21.3793719339, -157.732270532 21.3789587088, -157.732148015 21.3786373502, -157.731853964 21.3783164691, -157.731853617 21.3780410436, -157.731976178 21.3778802775, -157.732490169 21.3777651406, -157.732686449 21.3778571372, -157.733666979 21.3789119508, -157.734524601 21.3794393141, -157.735014628 21.3794849, -157.735186117 21.3793927297, -157.735528619 21.3788192161, -157.735749211 21.3788189122, -157.735773871 21.3793236563, -157.735529791 21.3804251844, -157.735456333 21.380470944, -157.735358605 21.3808384095, -157.73533464 21.3814117494, -157.735432715 21.3816873485, -157.735604205 21.3818937006, -157.736045433 21.3820769558, -157.736461827 21.3821225416, -157.737098683 21.381915495, -157.737343631 21.3817091429, -157.737759374 21.381066252, -157.738028418 21.3803549388, -157.738076695 21.3792076511, -157.737855582 21.3782440527, -157.73778182 21.3781753266, -157.737708058 21.3775329566, -157.737413703 21.3773035946, -157.737413703 21.3771200355, -157.737634122 21.3768442627, -157.73831995 21.3766146402, -157.738515579 21.3764768406, -157.738613306 21.3762243383, -157.738416983 21.3757197679, -157.738416853 21.3754213758, -157.738514754 21.3752837499, -157.738931322 21.3752602624, -157.739445964 21.375833776, -157.739912156 21.3765908053, -157.740035064 21.3771183857, -157.740402356 21.3771871118, -157.740892165 21.3770719315, -157.741088315 21.3771406576, -157.741284638 21.3777599308, -157.741310426 21.3792284469, -157.741090138 21.3796416719, -157.741017071 21.3802842156, -157.740796609 21.3804907413, -157.74013544 21.3806977879, -157.739327268 21.3810883937, -157.739303302 21.3816388973, -157.739499756 21.3821894443, -157.739402028 21.3825106293, -157.73901012 21.3827176325, -157.737687262 21.382993579, -157.737271041 21.3832923184, -157.737075413 21.3835447772, -157.73678184 21.3843251204, -157.73604743 21.384876145, -157.735410573 21.3849224255, -157.735214294 21.3848307328, -157.734920069 21.3844178551, -157.734527988 21.384096974, -157.734502156 21.3822383731, -157.734403907 21.3819862616, -157.734085414 21.3816192737, -157.734084719 21.3808391041, -157.733888613 21.3804721596, -157.733496141 21.3800133053, -157.73320196 21.379875853, -157.732565407 21.3799682404, -157.73165903 21.3803586291, -157.731218627 21.3809555869, -157.730728948 21.3813916482, -157.730386143 21.3815067851))
